STARLINK-35710          
1 66212U 25244G   25324.75002315 -.02078853  00000+0 -51103-1 0  9998
2 66212  53.1594  19.6505 0001478  64.0947  88.6751 15.43703841  4805
STARLINK-34204          
1 66213U 25244H   25324.75002315 -.01344205  00000+0 -35637-1 0  9999
2 66213  53.1591  19.6862 0001101  70.7998  64.0865 15.40586382  4992
STARLINK-35714          
1 66214U 25244J   25324.46099487  .00067374  00000+0  12081-2 0  9999
2 66214  53.1596  20.9901 0001160  76.1952 283.9186 15.49329849  4880
STARLINK-35712          
1 66215U 25244K   25324.71833980  .00055704  00000+0  10016-2 0  9992
2 66215  53.1598  19.7518 0001278  82.1917 277.9237 15.49333272  4921
STARLINK-35709          
1 66216U 25244L   25324.75002315 -.02081694  00000+0 -51199-1 0  9994
2 66216  53.1588  19.6477 0001468  63.1260  91.5112 15.43694563  4676
STARLINK-35700          
1 66217U 25244M   25324.75002315 -.02081764  00000+0 -46409-1 0  9991
2 66217  53.1598  19.6244 0001333  74.6974  91.4388 15.46544236  4678
STARLINK-35722          
1 66218U 25244N   25324.75002315 -.02067267  00000+0 -46070-1 0  9998
2 66218  53.1594  19.6203 0001404  73.0236  95.0053 15.46527827  4679
STARLINK-35737          
1 66219U 25244P   25324.65417417  .00054870  00000+0  98676-3 0  9994
2 66219  53.1599  20.0635 0001118  80.6450 279.4685 15.49336235  4914
STARLINK-35677          
1 66220U 25244Q   25324.71799551  .00070735  00000+0  12677-2 0  9999
2 66220  53.1600  19.7502 0001302  80.9519 279.1637 15.49323771  4927
STARLINK-35704          
1 66221U 25244R   25324.65314455  .00052727  00000+0  94893-3 0  9991
2 66221  53.1599  20.0560 0001233  85.4950 274.6200 15.49331760  4918
STARLINK-35666          
1 66222U 25244S   25324.65245564  .00048813  00000+0  87897-3 0  9993
2 66222  53.1599  20.0513 0001271  88.2617 271.8537 15.49349705  4910
STARLINK-35664          
1 66223U 25244T   25324.71731139  .00068255  00000+0  12235-2 0  9994
2 66223  53.1600  19.7457 0001868  55.5831 304.5354 15.49332624  4927
