CCSDS_OMM_VERS = 2.0
CREATION_DATE  = 
ORIGINATOR     = 

OBJECT_NAME    = STARLINK-35710
OBJECT_ID      = 2025-244G
CENTER_NAME    = EARTH
REF_FRAME      = TEME
TIME_SYSTEM    = UTC
MEAN_ELEMENT_THEORY = SGP/SGP4

EPOCH          = 2025-11-20T18:00:02.000160
MEAN_MOTION    = 15.43703841
ECCENTRICITY   = .0001478
INCLINATION    = 53.1594
RA_OF_ASC_NODE = 19.6505
ARG_OF_PERICENTER = 64.0947
MEAN_ANOMALY   = 88.6751

EPHEMERIS_TYPE = 0
CLASSIFICATION_TYPE = U
NORAD_CAT_ID   = 66212
ELEMENT_SET_NO = 999
REV_AT_EPOCH   = 480
BSTAR          = -.51103E-1
MEAN_MOTION_DOT = -.2078853E-1
MEAN_MOTION_DDOT = 0

CCSDS_OMM_VERS = 2.0
CREATION_DATE  = 
ORIGINATOR     = 

OBJECT_NAME    = STARLINK-34204
OBJECT_ID      = 2025-244H
CENTER_NAME    = EARTH
REF_FRAME      = TEME
TIME_SYSTEM    = UTC
MEAN_ELEMENT_THEORY = SGP/SGP4

EPOCH          = 2025-11-20T18:00:02.000160
MEAN_MOTION    = 15.40586382
ECCENTRICITY   = .0001101
INCLINATION    = 53.1591
RA_OF_ASC_NODE = 19.6862
ARG_OF_PERICENTER = 70.7998
MEAN_ANOMALY   = 64.0865

EPHEMERIS_TYPE = 0
CLASSIFICATION_TYPE = U
NORAD_CAT_ID   = 66213
ELEMENT_SET_NO = 999
REV_AT_EPOCH   = 499
BSTAR          = -.35637E-1
MEAN_MOTION_DOT = -.1344205E-1
MEAN_MOTION_DDOT = 0

CCSDS_OMM_VERS = 2.0
CREATION_DATE  = 
ORIGINATOR     = 

OBJECT_NAME    = STARLINK-35714
OBJECT_ID      = 2025-244J
CENTER_NAME    = EARTH
REF_FRAME      = TEME
TIME_SYSTEM    = UTC
MEAN_ELEMENT_THEORY = SGP/SGP4

EPOCH          = 2025-11-20T11:03:49.956768
MEAN_MOTION    = 15.49329849
ECCENTRICITY   = .000116
INCLINATION    = 53.1596
RA_OF_ASC_NODE = 20.9901
ARG_OF_PERICENTER = 76.1952
MEAN_ANOMALY   = 283.9186

EPHEMERIS_TYPE = 0
CLASSIFICATION_TYPE = U
NORAD_CAT_ID   = 66214
ELEMENT_SET_NO = 999
REV_AT_EPOCH   = 488
BSTAR          = .12081E-2
MEAN_MOTION_DOT = .67374E-3
MEAN_MOTION_DDOT = 0

CCSDS_OMM_VERS = 2.0
CREATION_DATE  = 
ORIGINATOR     = 

OBJECT_NAME    = STARLINK-35712
OBJECT_ID      = 2025-244K
CENTER_NAME    = EARTH
REF_FRAME      = TEME
TIME_SYSTEM    = UTC
MEAN_ELEMENT_THEORY = SGP/SGP4

EPOCH          = 2025-11-20T17:14:24.558720
MEAN_MOTION    = 15.49333272
ECCENTRICITY   = .0001278
INCLINATION    = 53.1598
RA_OF_ASC_NODE = 19.7518
ARG_OF_PERICENTER = 82.1917
MEAN_ANOMALY   = 277.9237

EPHEMERIS_TYPE = 0
CLASSIFICATION_TYPE = U
NORAD_CAT_ID   = 66215
ELEMENT_SET_NO = 999
REV_AT_EPOCH   = 492
BSTAR          = .10016E-2
MEAN_MOTION_DOT = .55704E-3
MEAN_MOTION_DDOT = 0

CCSDS_OMM_VERS = 2.0
CREATION_DATE  = 
ORIGINATOR     = 

OBJECT_NAME    = STARLINK-35709
OBJECT_ID      = 2025-244L
CENTER_NAME    = EARTH
REF_FRAME      = TEME
TIME_SYSTEM    = UTC
MEAN_ELEMENT_THEORY = SGP/SGP4

EPOCH          = 2025-11-20T18:00:02.000160
MEAN_MOTION    = 15.43694563
ECCENTRICITY   = .0001468
INCLINATION    = 53.1588
RA_OF_ASC_NODE = 19.6477
ARG_OF_PERICENTER = 63.1260
MEAN_ANOMALY   = 91.5112

EPHEMERIS_TYPE = 0
CLASSIFICATION_TYPE = U
NORAD_CAT_ID   = 66216
ELEMENT_SET_NO = 999
REV_AT_EPOCH   = 467
BSTAR          = -.51199E-1
MEAN_MOTION_DOT = -.2081694E-1
MEAN_MOTION_DDOT = 0

CCSDS_OMM_VERS = 2.0
CREATION_DATE  = 
ORIGINATOR     = 

OBJECT_NAME    = STARLINK-35700
OBJECT_ID      = 2025-244M
CENTER_NAME    = EARTH
REF_FRAME      = TEME
TIME_SYSTEM    = UTC
MEAN_ELEMENT_THEORY = SGP/SGP4

EPOCH          = 2025-11-20T18:00:02.000160
MEAN_MOTION    = 15.46544236
ECCENTRICITY   = .0001333
INCLINATION    = 53.1598
RA_OF_ASC_NODE = 19.6244
ARG_OF_PERICENTER = 74.6974
MEAN_ANOMALY   = 91.4388

EPHEMERIS_TYPE = 0
CLASSIFICATION_TYPE = U
NORAD_CAT_ID   = 66217
ELEMENT_SET_NO = 999
REV_AT_EPOCH   = 467
BSTAR          = -.46409E-1
MEAN_MOTION_DOT = -.2081764E-1
MEAN_MOTION_DDOT = 0

CCSDS_OMM_VERS = 2.0
CREATION_DATE  = 
ORIGINATOR     = 

OBJECT_NAME    = STARLINK-35722
OBJECT_ID      = 2025-244N
CENTER_NAME    = EARTH
REF_FRAME      = TEME
TIME_SYSTEM    = UTC
MEAN_ELEMENT_THEORY = SGP/SGP4

EPOCH          = 2025-11-20T18:00:02.000160
MEAN_MOTION    = 15.46527827
ECCENTRICITY   = .0001404
INCLINATION    = 53.1594
RA_OF_ASC_NODE = 19.6203
ARG_OF_PERICENTER = 73.0236
MEAN_ANOMALY   = 95.0053

EPHEMERIS_TYPE = 0
CLASSIFICATION_TYPE = U
NORAD_CAT_ID   = 66218
ELEMENT_SET_NO = 999
REV_AT_EPOCH   = 467
BSTAR          = -.4607E-1
MEAN_MOTION_DOT = -.2067267E-1
MEAN_MOTION_DDOT = 0

CCSDS_OMM_VERS = 2.0
CREATION_DATE  = 
ORIGINATOR     = 

OBJECT_NAME    = STARLINK-35737
OBJECT_ID      = 2025-244P
CENTER_NAME    = EARTH
REF_FRAME      = TEME
TIME_SYSTEM    = UTC
MEAN_ELEMENT_THEORY = SGP/SGP4

EPOCH          = 2025-11-20T15:42:00.648288
MEAN_MOTION    = 15.49336235
ECCENTRICITY   = .0001118
INCLINATION    = 53.1599
RA_OF_ASC_NODE = 20.0635
ARG_OF_PERICENTER = 80.6450
MEAN_ANOMALY   = 279.4685

EPHEMERIS_TYPE = 0
CLASSIFICATION_TYPE = U
NORAD_CAT_ID   = 66219
ELEMENT_SET_NO = 999
REV_AT_EPOCH   = 491
BSTAR          = .98676E-3
MEAN_MOTION_DOT = .5487E-3
MEAN_MOTION_DDOT = 0

CCSDS_OMM_VERS = 2.0
CREATION_DATE  = 
ORIGINATOR     = 

OBJECT_NAME    = STARLINK-35677
OBJECT_ID      = 2025-244Q
CENTER_NAME    = EARTH
REF_FRAME      = TEME
TIME_SYSTEM    = UTC
MEAN_ELEMENT_THEORY = SGP/SGP4

EPOCH          = 2025-11-20T17:13:54.812064
MEAN_MOTION    = 15.49323771
ECCENTRICITY   = .0001302
INCLINATION    = 53.1600
RA_OF_ASC_NODE = 19.7502
ARG_OF_PERICENTER = 80.9519
MEAN_ANOMALY   = 279.1637

EPHEMERIS_TYPE = 0
CLASSIFICATION_TYPE = U
NORAD_CAT_ID   = 66220
ELEMENT_SET_NO = 999
REV_AT_EPOCH   = 492
BSTAR          = .12677E-2
MEAN_MOTION_DOT = .70735E-3
MEAN_MOTION_DDOT = 0

CCSDS_OMM_VERS = 2.0
CREATION_DATE  = 
ORIGINATOR     = 

OBJECT_NAME    = STARLINK-35704
OBJECT_ID      = 2025-244R
CENTER_NAME    = EARTH
REF_FRAME      = TEME
TIME_SYSTEM    = UTC
MEAN_ELEMENT_THEORY = SGP/SGP4

EPOCH          = 2025-11-20T15:40:31.689120
MEAN_MOTION    = 15.49331760
ECCENTRICITY   = .0001233
INCLINATION    = 53.1599
RA_OF_ASC_NODE = 20.0560
ARG_OF_PERICENTER = 85.4950
MEAN_ANOMALY   = 274.6200

EPHEMERIS_TYPE = 0
CLASSIFICATION_TYPE = U
NORAD_CAT_ID   = 66221
ELEMENT_SET_NO = 999
REV_AT_EPOCH   = 491
BSTAR          = .94893E-3
MEAN_MOTION_DOT = .52727E-3
MEAN_MOTION_DDOT = 0

CCSDS_OMM_VERS = 2.0
CREATION_DATE  = 
ORIGINATOR     = 

OBJECT_NAME    = STARLINK-35666
OBJECT_ID      = 2025-244S
CENTER_NAME    = EARTH
REF_FRAME      = TEME
TIME_SYSTEM    = UTC
MEAN_ELEMENT_THEORY = SGP/SGP4

EPOCH          = 2025-11-20T15:39:32.167296
MEAN_MOTION    = 15.49349705
ECCENTRICITY   = .0001271
INCLINATION    = 53.1599
RA_OF_ASC_NODE = 20.0513
ARG_OF_PERICENTER = 88.2617
MEAN_ANOMALY   = 271.8537

EPHEMERIS_TYPE = 0
CLASSIFICATION_TYPE = U
NORAD_CAT_ID   = 66222
ELEMENT_SET_NO = 999
REV_AT_EPOCH   = 491
BSTAR          = .87897E-3
MEAN_MOTION_DOT = .48813E-3
MEAN_MOTION_DDOT = 0

CCSDS_OMM_VERS = 2.0
CREATION_DATE  = 
ORIGINATOR     = 

OBJECT_NAME    = STARLINK-35664
OBJECT_ID      = 2025-244T
CENTER_NAME    = EARTH
REF_FRAME      = TEME
TIME_SYSTEM    = UTC
MEAN_ELEMENT_THEORY = SGP/SGP4

EPOCH          = 2025-11-20T17:12:55.704096
MEAN_MOTION    = 15.49332624
ECCENTRICITY   = .0001868
INCLINATION    = 53.1600
RA_OF_ASC_NODE = 19.7457
ARG_OF_PERICENTER = 55.5831
MEAN_ANOMALY   = 304.5354

EPHEMERIS_TYPE = 0
CLASSIFICATION_TYPE = U
NORAD_CAT_ID   = 66223
ELEMENT_SET_NO = 999
REV_AT_EPOCH   = 492
BSTAR          = .12235E-2
MEAN_MOTION_DOT = .68255E-3
MEAN_MOTION_DDOT = 0

